{
  "type": "FeatureCollection",
  "features": [
    {
      "type": "Feature",
      "properties": {
        "norad_id": 66814,
        "name": "STARLINK-35984",
        "group": "last-30-days",
        "lat": 22.713386433339203,
        "lon": -159.96307992601228,
        "alt_km": 411.9167249628372,
        "timestamp": "2025-12-25T20:42:37.408497+00:00",
        "meta_object_name": "STARLINK-35984",
        "meta_object_id": "2025-278Z",
        "meta_epoch": "2025-12-25T08:00:01.000224",
        "meta_mean_motion": 15.50508327,
        "meta_eccentricity": 0.00014428,
        "meta_inclination": 43.0002,
        "meta_ra_of_asc_node": 176.4432,
        "meta_arg_of_pericenter": 269.604,
        "meta_mean_anomaly": 45.2574,
        "meta_ephemeris_type": 0,
        "meta_classification_type": "U",
        "meta_norad_cat_id": 66814,
        "meta_element_set_no": 999,
        "meta_rev_at_epoch": 507,
        "meta_bstar": 0.0013049527,
        "meta_mean_motion_dot": 0.00076774,
        "meta_mean_motion_ddot": 0,
        "tle_line1": "1 66814U 25278Z   25359.33334491  .00076774  00000+0  13050-2 0  9994",
        "tle_line2": "2 66814  43.0002 176.4432 0001442 269.6040  45.2574 15.50508327  5076"
      },
      "geometry": {
        "type": "Point",
        "coordinates": [
          -159.96307992601228,
          22.713386433339203
        ]
      }
    },
    {
      "type": "Feature",
      "properties": {
        "norad_id": 66815,
        "name": "STARLINK-35985",
        "group": "last-30-days",
        "lat": 21.535492417390955,
        "lon": -161.59546741307616,
        "alt_km": 412.13414320910397,
        "timestamp": "2025-12-25T20:42:37.408507+00:00",
        "meta_object_name": "STARLINK-35985",
        "meta_object_id": "2025-278AA",
        "meta_epoch": "2025-12-25T08:00:01.000224",
        "meta_mean_motion": 15.50507876,
        "meta_eccentricity": 0.000152,
        "meta_inclination": 43.0003,
        "meta_ra_of_asc_node": 176.4481,
        "meta_arg_of_pericenter": 267.538,
        "meta_mean_anomaly": 45.4041,
        "meta_ephemeris_type": 0,
        "meta_classification_type": "U",
        "meta_norad_cat_id": 66815,
        "meta_element_set_no": 999,
        "meta_rev_at_epoch": 507,
        "meta_bstar": 0.0013178476,
        "meta_mean_motion_dot": 0.00077543,
        "meta_mean_motion_ddot": 0,
        "tle_line1": "1 66815U 25278AA  25359.33334491  .00077543  00000+0  13178-2 0  9991",
        "tle_line2": "2 66815  43.0003 176.4481 0001520 267.5380  45.4041 15.50507876  5072"
      },
      "geometry": {
        "type": "Point",
        "coordinates": [
          -161.59546741307616,
          21.535492417390955
        ]
      }
    },
    {
      "type": "Feature",
      "properties": {
        "norad_id": 66816,
        "name": "STARLINK-36098",
        "group": "last-30-days",
        "lat": 16.684379817801688,
        "lon": -167.86911128974867,
        "alt_km": 412.8096483796853,
        "timestamp": "2025-12-25T20:42:37.408517+00:00",
        "meta_object_name": "STARLINK-36098",
        "meta_object_id": "2025-278AB",
        "meta_epoch": "2025-12-25T08:00:01.000224",
        "meta_mean_motion": 15.5051758,
        "meta_eccentricity": 0.00015732,
        "meta_inclination": 43.0003,
        "meta_ra_of_asc_node": 176.4674,
        "meta_arg_of_pericenter": 266.6615,
        "meta_mean_anomaly": 38.6039,
        "meta_ephemeris_type": 0,
        "meta_classification_type": "U",
        "meta_norad_cat_id": 66816,
        "meta_element_set_no": 999,
        "meta_rev_at_epoch": 482,
        "meta_bstar": 0.0011616464,
        "meta_mean_motion_dot": 0.00068253,
        "meta_mean_motion_ddot": 0,
        "tle_line1": "1 66816U 25278AB  25359.33334491  .00068253  00000+0  11616-2 0  9995",
        "tle_line2": "2 66816  43.0003 176.4674 0001573 266.6615  38.6039 15.50517580  4822"
      },
      "geometry": {
        "type": "Point",
        "coordinates": [
          -167.86911128974867,
          16.684379817801688
        ]
      }
    },
    {
      "type": "Feature",
      "properties": {
        "norad_id": 66817,
        "name": "STARLINK-35995",
        "group": "last-30-days",
        "lat": 19.13706968131711,
        "lon": -164.77826398855552,
        "alt_km": 412.50091556686584,
        "timestamp": "2025-12-25T20:42:37.408530+00:00",
        "meta_object_name": "STARLINK-35995",
        "meta_object_id": "2025-278AC",
        "meta_epoch": "2025-12-25T08:00:01.000224",
        "meta_mean_motion": 15.50513268,
        "meta_eccentricity": 0.0001537,
        "meta_inclination": 43.0003,
        "meta_ra_of_asc_node": 176.4575,
        "meta_arg_of_pericenter": 265.3658,
        "meta_mean_anomaly": 43.7401,
        "meta_ephemeris_type": 0,
        "meta_classification_type": "U",
        "meta_norad_cat_id": 66817,
        "meta_element_set_no": 999,
        "meta_rev_at_epoch": 498,
        "meta_bstar": 0.0012042196,
        "meta_mean_motion_dot": 0.00070779,
        "meta_mean_motion_ddot": 0,
        "tle_line1": "1 66817U 25278AC  25359.33334491  .00070779  00000+0  12042-2 0  9996",
        "tle_line2": "2 66817  43.0003 176.4575 0001537 265.3658  43.7401 15.50513268  4982"
      },
      "geometry": {
        "type": "Point",
        "coordinates": [
          -164.77826398855552,
          19.13706968131711
        ]
      }
    },
    {
      "type": "Feature",
      "properties": {
        "norad_id": 66818,
        "name": "STARLINK-35994",
        "group": "last-30-days",
        "lat": 14.148153563195025,
        "lon": -170.92731520371933,
        "alt_km": 424.397769086414,
        "timestamp": "2025-12-25T20:42:37.408540+00:00",
        "meta_object_name": "STARLINK-35994",
        "meta_object_id": "2025-278AD",
        "meta_epoch": "2025-12-25T08:00:01.000224",
        "meta_mean_motion": 15.49147696,
        "meta_eccentricity": 0.00017754,
        "meta_inclination": 43.0004,
        "meta_ra_of_asc_node": 176.4642,
        "meta_arg_of_pericenter": 262.5892,
        "meta_mean_anomaly": 43.7465,
        "meta_ephemeris_type": 0,
        "meta_classification_type": "U",
        "meta_norad_cat_id": 66818,
        "meta_element_set_no": 999,
        "meta_rev_at_epoch": 498,
        "meta_bstar": -0.041600219,
        "meta_mean_motion_dot": -0.02063765,
        "meta_mean_motion_ddot": 0,
        "tle_line1": "1 66818U 25278AD  25359.33334491 -.02063765  00000+0 -41600-1 0  9999",
        "tle_line2": "2 66818  43.0004 176.4642 0001775 262.5892  43.7465 15.49147696  4988"
      },
      "geometry": {
        "type": "Point",
        "coordinates": [
          -170.92731520371933,
          14.148153563195025
        ]
      }
    },
    {
      "type": "Feature",
      "properties": {
        "norad_id": 66819,
        "name": "STARLINK-35989",
        "group": "last-30-days",
        "lat": 20.346181165304646,
        "lon": -163.1958258437907,
        "alt_km": 412.3731343333866,
        "timestamp": "2025-12-25T20:42:37.408550+00:00",
        "meta_object_name": "STARLINK-35989",
        "meta_object_id": "2025-278AE",
        "meta_epoch": "2025-12-25T08:00:01.000224",
        "meta_mean_motion": 15.50513902,
        "meta_eccentricity": 0.00015781,
        "meta_inclination": 43.0003,
        "meta_ra_of_asc_node": 176.4527,
        "meta_arg_of_pericenter": 264.1732,
        "meta_mean_anomaly": 46.8529,
        "meta_ephemeris_type": 0,
        "meta_classification_type": "U",
        "meta_norad_cat_id": 66819,
        "meta_element_set_no": 999,
        "meta_rev_at_epoch": 498,
        "meta_bstar": 0.0011880521,
        "meta_mean_motion_dot": 0.00069818,
        "meta_mean_motion_ddot": 0,
        "tle_line1": "1 66819U 25278AE  25359.33334491  .00069818  00000+0  11881-2 0  9990",
        "tle_line2": "2 66819  43.0003 176.4527 0001578 264.1732  46.8529 15.50513902  4986"
      },
      "geometry": {
        "type": "Point",
        "coordinates": [
          -163.1958258437907,
          20.346181165304646
        ]
      }
    },
    {
      "type": "Feature",
      "properties": {
        "norad_id": 66820,
        "name": "KOMPSAT-7",
        "group": "last-30-days",
        "lat": -80.02439986030522,
        "lon": 75.70615701030603,
        "alt_km": 566.584489052244,
        "timestamp": "2025-12-25T20:42:37.408560+00:00",
        "meta_object_name": "KOMPSAT-7",
        "meta_object_id": "2025-279A",
        "meta_epoch": "2025-12-25T00:20:09.588768",
        "meta_mean_motion": 15.00672429,
        "meta_eccentricity": 0.00112449,
        "meta_inclination": 97.6459,
        "meta_ra_of_asc_node": 304.668,
        "meta_arg_of_pericenter": 221.971,
        "meta_mean_anomaly": 138.0653,
        "meta_ephemeris_type": 0,
        "meta_classification_type": "U",
        "meta_norad_cat_id": 66820,
        "meta_element_set_no": 999,
        "meta_rev_at_epoch": 349,
        "meta_bstar": 0.00024414601,
        "meta_mean_motion_dot": 3.034e-05,
        "meta_mean_motion_ddot": 0,
        "tle_line1": "1 66820U 25279A   25359.01399987  .00003034  00000+0  24415-3 0  9995",
        "tle_line2": "2 66820  97.6459 304.6680 0011244 221.9710 138.0653 15.00672429  3493"
      },
      "geometry": {
        "type": "Point",
        "coordinates": [
          75.70615701030603,
          -80.02439986030522
        ]
      }
    }
  ]
}